[{"OBJECT_NAME":"FLOCK 4BE-25","OBJECT_ID":"2024-149V","EPOCH":"2026-03-09T18:30:08.620704","MEAN_MOTION":15.3601114,"ECCENTRICITY":0.00017232,"INCLINATION":97.3839,"RA_OF_ASC_NODE":151.4375,"ARG_OF_PERICENTER":216.9138,"MEAN_ANOMALY":143.1988,"EPHEMERIS_TYPE":0,"CLASSIFICATION_TYPE":"U","NORAD_CAT_ID":60487,"ELEMENT_SET_NO":999,"REV_AT_EPOCH":8696,"BSTAR":0.00050937903,"MEAN_MOTION_DOT":0.00017801,"MEAN_MOTION_DDOT":0},{"OBJECT_NAME":"PEGASUS DEB","OBJECT_ID":"1994-029AES","EPOCH":"2026-03-06T17:32:52.876320","MEAN_MOTION":15.2736598,"ECCENTRICITY":0.00781089,"INCLINATION":81.9406,"RA_OF_ASC_NODE":336.1125,"ARG_OF_PERICENTER":102.4632,"MEAN_ANOMALY":258.5359,"EPHEMERIS_TYPE":0,"CLASSIFICATION_TYPE":"U","NORAD_CAT_ID":39307,"ELEMENT_SET_NO":999,"REV_AT_EPOCH":76792,"BSTAR":0.0021826707,"MEAN_MOTION_DOT":0.00064449,"MEAN_MOTION_DDOT":0}]
